start=new Date('2022-08-29T00:00:00.000Z').valueOf();
sats=[{"REV_AT_EPOCH":"8913","NORAD_CAT_ID":"47381","OBJECT_ID":"2021-005AJ","INCLINATION":"53.0547","LAUNCH_DATE":"2021-01-20","REF_FRAME":"TEME","CLASSIFICATION_TYPE":"U","OBJECT_NAME":"STARLINK-2101","PERIOD":"95.592","RCS_SIZE":"LARGE","SITE":"AFETR","DECAY_DATE":null,"ARG_OF_PERICENTER":"77.5916","EPOCH":"2022-08-28T19:56:02.524992","MEAN_MOTION_DDOT":"0.0000000000000","COUNTRY_CODE":"US","OBJECT_TYPE":"PAYLOAD","TLE_LINE2":"2 47381  53.0547  62.6126 0001578  77.5916 282.5250 15.06399213 89132","ELEMENT_SET_NO":"999","GP_ID":"211210885","ECCENTRICITY":"0.00015780","MEAN_MOTION_DOT":"0.00001035","SEMIMAJOR_AXIS":"6925.351","TLE_LINE1":"1 47381U 21005AJ  22240.83058478  .00001035  00000-0  88369-4 0  9991","APOAPSIS":"548.309","CENTER_NAME":"EARTH","MEAN_ANOMALY":"282.5250","BSTAR":"0.00008836900000","MEAN_ELEMENT_THEORY":"SGP4","RA_OF_ASC_NODE":"62.6126","TIME_SYSTEM":"UTC","EPHEMERIS_TYPE":"0","MEAN_MOTION":"15.06399213","FILE":"3550014","PERIAPSIS":"546.123"},{"SITE":"AFETR","PERIOD":"95.592","RCS_SIZE":"LARGE","ARG_OF_PERICENTER":"82.4095","EPOCH":"2022-08-28T19:22:11.352576","DECAY_DATE":null,"OBJECT_NAME":"STARLINK-2102","CLASSIFICATION_TYPE":"U","LAUNCH_DATE":"2021-01-20","REF_FRAME":"TEME","REV_AT_EPOCH":"8919","NORAD_CAT_ID":"47382","INCLINATION":"53.0550","OBJECT_ID":"2021-005AK","TIME_SYSTEM":"UTC","EPHEMERIS_TYPE":"0","MEAN_MOTION":"15.06401198","BSTAR":"0.00009438100000","MEAN_ELEMENT_THEORY":"SGP4","RA_OF_ASC_NODE":"57.6455","FILE":"3550014","PERIAPSIS":"546.302","CENTER_NAME":"EARTH","APOAPSIS":"548.118","TLE_LINE1":"1 47382U 21005AK  22240.80707584  .00001125  00000-0  94381-4 0  9999","MEAN_ANOMALY":"277.7043","GP_ID":"211211135","MEAN_MOTION_DOT":"0.00001125","SEMIMAJOR_AXIS":"6925.345","ECCENTRICITY":"0.00013110","TLE_LINE2":"2 47382  53.0550  57.6455 0001311  82.4095 277.7043 15.06401198 89192","MEAN_MOTION_DDOT":"0.0000000000000","OBJECT_TYPE":"PAYLOAD","COUNTRY_CODE":"US","ELEMENT_SET_NO":"999"},{"REV_AT_EPOCH":"8933","NORAD_CAT_ID":"47383","INCLINATION":"53.0545","OBJECT_ID":"2021-005AL","LAUNCH_DATE":"2021-01-20","REF_FRAME":"TEME","OBJECT_NAME":"STARLINK-2103","CLASSIFICATION_TYPE":"U","SITE":"AFETR","PERIOD":"95.592","RCS_SIZE":"LARGE","ARG_OF_PERICENTER":"81.3544","EPOCH":"2022-08-28T18:13:09.505056","DECAY_DATE":null,"TLE_LINE2":"2 47383  53.0545  47.8576 0001435  81.3544 278.7608 15.06398032 89332","MEAN_MOTION_DDOT":"0.0000000000000","COUNTRY_CODE":"US","OBJECT_TYPE":"PAYLOAD","ELEMENT_SET_NO":"999","GP_ID":"211212387","MEAN_MOTION_DOT":"-0.00000819","SEMIMAJOR_AXIS":"6925.355","ECCENTRICITY":"0.00014350","CENTER_NAME":"EARTH","APOAPSIS":"548.213","TLE_LINE1":"1 47383U 21005AL  22240.75913779 -.00000819  00000-0 -36083-4 0  9995","MEAN_ANOMALY":"278.7608","TIME_SYSTEM":"UTC","EPHEMERIS_TYPE":"0","MEAN_MOTION":"15.06398032","BSTAR":"-0.00003608300000","MEAN_ELEMENT_THEORY":"SGP4","RA_OF_ASC_NODE":"47.8576","FILE":"3550014","PERIAPSIS":"546.226"},{"REF_FRAME":"TEME","LAUNCH_DATE":"2021-01-20","OBJECT_ID":"2021-005AM","INCLINATION":"53.0544","NORAD_CAT_ID":"47384","REV_AT_EPOCH":"8918","DECAY_DATE":null,"EPOCH":"2022-08-28T17:25:27.605280","ARG_OF_PERICENTER":"86.9126","RCS_SIZE":"LARGE","PERIOD":"95.592","SITE":"AFETR","CLASSIFICATION_TYPE":"U","OBJECT_NAME":"STARLINK-2104","ECCENTRICITY":"0.00012540","SEMIMAJOR_AXIS":"6925.334","MEAN_MOTION_DOT":"0.00001995","GP_ID":"211212634","ELEMENT_SET_NO":"999","OBJECT_TYPE":"PAYLOAD","COUNTRY_CODE":"US","MEAN_MOTION_DDOT":"0.0000000000000","TLE_LINE2":"2 47384  53.0544  58.2380 0001254  86.9126 273.2006 15.06404883 89184","PERIAPSIS":"546.330","FILE":"3550014","RA_OF_ASC_NODE":"58.2380","BSTAR":"0.00015278000000","MEAN_ELEMENT_THEORY":"SGP4","MEAN_MOTION":"15.06404883","EPHEMERIS_TYPE":"0","TIME_SYSTEM":"UTC","MEAN_ANOMALY":"273.2006","TLE_LINE1":"1 47384U 21005AM  22240.72601395  .00001995  00000-0  15278-3 0  9997","APOAPSIS":"548.067","CENTER_NAME":"EARTH"},{"ECCENTRICITY":"0.00014580","MEAN_MOTION_DOT":"0.00001101","SEMIMAJOR_AXIS":"6925.333","GP_ID":"211211386","ELEMENT_SET_NO":"999","MEAN_MOTION_DDOT":"0.0000000000000","COUNTRY_CODE":"US","OBJECT_TYPE":"PAYLOAD","TLE_LINE2":"2 47385  53.0546  58.0219 0001458  82.2912 277.8243 15.06405189 89187","FILE":"3550014","PERIAPSIS":"546.188","MEAN_ELEMENT_THEORY":"SGP4","BSTAR":"0.00009275500000","RA_OF_ASC_NODE":"58.0219","TIME_SYSTEM":"UTC","EPHEMERIS_TYPE":"0","MEAN_MOTION":"15.06405189","MEAN_ANOMALY":"277.8243","APOAPSIS":"548.207","TLE_LINE1":"1 47385U 21005AN  22240.72229539  .00001101  00000-0  92755-4 0  9999","CENTER_NAME":"EARTH","REF_FRAME":"TEME","LAUNCH_DATE":"2021-01-20","OBJECT_ID":"2021-005AN","INCLINATION":"53.0546","REV_AT_EPOCH":"8918","NORAD_CAT_ID":"47385","DECAY_DATE":null,"ARG_OF_PERICENTER":"82.2912","EPOCH":"2022-08-28T17:20:06.321696","PERIOD":"95.592","RCS_SIZE":"LARGE","SITE":"AFETR","CLASSIFICATION_TYPE":"U","OBJECT_NAME":"STARLINK-2105"},{"PERIAPSIS":"546.157","FILE":"3550014","EPHEMERIS_TYPE":"0","TIME_SYSTEM":"UTC","MEAN_MOTION":"15.06414502","MEAN_ELEMENT_THEORY":"SGP4","BSTAR":"0.00043605000000","RA_OF_ASC_NODE":"57.5926","MEAN_ANOMALY":"281.6642","CENTER_NAME":"EARTH","APOAPSIS":"548.182","TLE_LINE1":"1 47386U 21005AP  22240.81813041  .00006222  00000-0  43605-3 0  9995","MEAN_MOTION_DOT":"0.00006222","SEMIMAJOR_AXIS":"6925.304","ECCENTRICITY":"0.00014620","GP_ID":"211211636","ELEMENT_SET_NO":"999","TLE_LINE2":"2 47386  53.0545  57.5926 0001462  78.4511 281.6642 15.06414502 89201","MEAN_MOTION_DDOT":"0.0000000000000","OBJECT_TYPE":"PAYLOAD","COUNTRY_CODE":"US","ARG_OF_PERICENTER":"78.4511","EPOCH":"2022-08-28T19:38:06.467424","DECAY_DATE":null,"SITE":"AFETR","PERIOD":"95.591","RCS_SIZE":"LARGE","OBJECT_NAME":"STARLINK-2106","CLASSIFICATION_TYPE":"U","REF_FRAME":"TEME","LAUNCH_DATE":"2021-01-20","INCLINATION":"53.0545","OBJECT_ID":"2021-005AP","REV_AT_EPOCH":"8920","NORAD_CAT_ID":"47386"},{"TLE_LINE2":"2 47387  53.0546  87.3520 0001267  83.2606 276.8527 15.06397478 88788","OBJECT_TYPE":"PAYLOAD","COUNTRY_CODE":"US","MEAN_MOTION_DDOT":"0.0000000000000","ELEMENT_SET_NO":"999","GP_ID":"211211887","SEMIMAJOR_AXIS":"6925.356","MEAN_MOTION_DOT":"0.00000204","ECCENTRICITY":"0.00012670","CENTER_NAME":"EARTH","TLE_LINE1":"1 47387U 21005AQ  22240.87065557  .00000204  00000-0  32587-4 0  9995","APOAPSIS":"548.099","MEAN_ANOMALY":"276.8527","MEAN_MOTION":"15.06397478","EPHEMERIS_TYPE":"0","TIME_SYSTEM":"UTC","RA_OF_ASC_NODE":"87.3520","BSTAR":"0.00003258700000","MEAN_ELEMENT_THEORY":"SGP4","FILE":"3550014","PERIAPSIS":"546.344","NORAD_CAT_ID":"47387","REV_AT_EPOCH":"8878","INCLINATION":"53.0546","OBJECT_ID":"2021-005AQ","LAUNCH_DATE":"2021-01-20","REF_FRAME":"TEME","OBJECT_NAME":"STARLINK-2108","CLASSIFICATION_TYPE":"U","SITE":"AFETR","RCS_SIZE":"LARGE","PERIOD":"95.592","EPOCH":"2022-08-28T20:53:44.641248","ARG_OF_PERICENTER":"83.2606","DECAY_DATE":null},{"ECCENTRICITY":"0.00015410","MEAN_MOTION_DOT":"0.00004667","SEMIMAJOR_AXIS":"6925.317","GP_ID":"211212134","ELEMENT_SET_NO":"999","MEAN_MOTION_DDOT":"0.0000000000000","OBJECT_TYPE":"PAYLOAD","COUNTRY_CODE":"US","TLE_LINE2":"2 47388  53.0528  87.2832 0001541  78.8198 281.2964 15.06410307 88787","PERIAPSIS":"546.115","FILE":"3550014","BSTAR":"0.00033190000000","MEAN_ELEMENT_THEORY":"SGP4","RA_OF_ASC_NODE":"87.2832","TIME_SYSTEM":"UTC","EPHEMERIS_TYPE":"0","MEAN_MOTION":"15.06410307","MEAN_ANOMALY":"281.2964","TLE_LINE1":"1 47388U 21005AR  22240.88539520  .00004667  00000-0  33190-3 0  9990","APOAPSIS":"548.249","CENTER_NAME":"EARTH","REF_FRAME":"TEME","LAUNCH_DATE":"2021-01-20","OBJECT_ID":"2021-005AR","INCLINATION":"53.0528","REV_AT_EPOCH":"8878","NORAD_CAT_ID":"47388","DECAY_DATE":null,"ARG_OF_PERICENTER":"78.8198","EPOCH":"2022-08-28T21:14:58.145280","PERIOD":"95.591","RCS_SIZE":"LARGE","SITE":"AFETR","CLASSIFICATION_TYPE":"U","OBJECT_NAME":"STARLINK-2109"},{"GP_ID":"211210886","SEMIMAJOR_AXIS":"6925.327","MEAN_MOTION_DOT":"0.00000794","ECCENTRICITY":"0.00014330","TLE_LINE2":"2 47389  53.0559  67.6799 0001433  83.9484 276.1668 15.06407096 89057","COUNTRY_CODE":"US","OBJECT_TYPE":"PAYLOAD","MEAN_MOTION_DDOT":"0.0000000000000","ELEMENT_SET_NO":"999","MEAN_MOTION":"15.06407096","TIME_SYSTEM":"UTC","EPHEMERIS_TYPE":"0","RA_OF_ASC_NODE":"67.6799","BSTAR":"0.00007215100000","MEAN_ELEMENT_THEORY":"SGP4","PERIAPSIS":"546.199","FILE":"3550014","CENTER_NAME":"EARTH","APOAPSIS":"548.184","TLE_LINE1":"1 47389U 21005AS  22240.79783127  .00000794  00000-0  72151-4 0  9993","MEAN_ANOMALY":"276.1668","LAUNCH_DATE":"2021-01-20","REF_FRAME":"TEME","NORAD_CAT_ID":"47389","REV_AT_EPOCH":"8905","INCLINATION":"53.0559","OBJECT_ID":"2021-005AS","SITE":"AFETR","RCS_SIZE":"LARGE","PERIOD":"95.592","EPOCH":"2022-08-28T19:08:52.621728","ARG_OF_PERICENTER":"83.9484","DECAY_DATE":null,"OBJECT_NAME":"STARLINK-2110","CLASSIFICATION_TYPE":"U"},{"ELEMENT_SET_NO":"999","OBJECT_TYPE":"PAYLOAD","COUNTRY_CODE":"US","MEAN_MOTION_DDOT":"0.0000000000000","TLE_LINE2":"2 47390  53.0545  87.4102 0001573  86.0312 274.0857 15.06412029 88789","ECCENTRICITY":"0.00015730","SEMIMAJOR_AXIS":"6925.312","MEAN_MOTION_DOT":"0.00000635","GP_ID":"211211136","MEAN_ANOMALY":"274.0857","APOAPSIS":"548.266","TLE_LINE1":"1 47390U 21005AT  22240.85959307  .00000635  00000-0  61513-4 0  9991","CENTER_NAME":"EARTH","FILE":"3550014","PERIAPSIS":"546.087","RA_OF_ASC_NODE":"87.4102","BSTAR":"0.00006151300000","MEAN_ELEMENT_THEORY":"SGP4","MEAN_MOTION":"15.06412029","TIME_SYSTEM":"UTC","EPHEMERIS_TYPE":"0","OBJECT_ID":"2021-005AT","INCLINATION":"53.0545","NORAD_CAT_ID":"47390","REV_AT_EPOCH":"8878","REF_FRAME":"TEME","LAUNCH_DATE":"2021-01-20","CLASSIFICATION_TYPE":"U","OBJECT_NAME":"STARLINK-2111","DECAY_DATE":null,"EPOCH":"2022-08-28T20:37:48.841248","ARG_OF_PERICENTER":"86.0312","RCS_SIZE":"LARGE","PERIOD":"95.591","SITE":"AFETR"}];
